CCSDS_OMM_VERS,COMMENT,CREATION_DATE,ORIGINATOR,OBJECT_NAME,OBJECT_ID,CENTER_NAME,REF_FRAME,TIME_SYSTEM,MEAN_ELEMENT_THEORY,EPOCH,MEAN_MOTION,ECCENTRICITY,INCLINATION,RA_OF_ASC_NODE,ARG_OF_PERICENTER,MEAN_ANOMALY,EPHEMERIS_TYPE,CLASSIFICATION_TYPE,NORAD_CAT_ID,ELEMENT_SET_NO,REV_AT_EPOCH,BSTAR,MEAN_MOTION_DOT,MEAN_MOTION_DDOT,SEMIMAJOR_AXIS,PERIOD,APOAPSIS,PERIAPSIS,OBJECT_TYPE,RCS_SIZE,COUNTRY_CODE,LAUNCH_DATE,SITE,DECAY_DATE,FILE,GP_ID,TLE_LINE0,TLE_LINE1,TLE_LINE2
"2.0","GENERATED VIA SPACE-TRACK.ORG API","2023-01-01T15:36:14","18 SPCS","ATLAS 5 CENTAUR DEB","2018-079BY","EARTH","TEME","UTC","SGP4","2023-01-01T09:45:17.438112","2.01371450","0.47191530","12.0783","114.7108","167.3042","210.7021","0","U","46485","999","1954","0.00000000000000","-0.00000131","0.0000000000000","26489.265","715.096","32611.820","7610.441","DEBRIS","","US","2018-10-17","AFETR","","3728605","221906132","0 ATLAS 5 CENTAUR DEB","1 46485U 18079BY  23001.40645183 -.00000131  00000-0  00000+0 0  9994","2 46485  12.0783 114.7108 4719153 167.3042 210.7021  2.01371450 19540"
"2.0","GENERATED VIA SPACE-TRACK.ORG API","2023-01-02T17:42:09","18 SPCS","ATLAS 5 CENTAUR DEB","2018-079BY","EARTH","TEME","UTC","SGP4","2023-01-02T09:34:19.369920","2.01373286","0.47188420","12.0844","114.5920","167.5527","210.1066","0","U","46485","999","843","0.00000000000000","-0.00000135","0.0000000000000","26489.104","715.090","32610.759","7611.179","DEBRIS","","US","2018-10-17","AFETR","","3729583","222027947","0 ATLAS 5 CENTAUR DEB","1 46485U 18079BY  23002.39883530 -.00000135  00000-0  00000-0 0  9998","2 46485  12.0844 114.5920 4718842 167.5527 210.1066  2.01373286  8430"
"2.0","GENERATED VIA SPACE-TRACK.ORG API","2023-01-03T02:40:54","18 SPCS","ATLAS 5 CENTAUR DEB","2018-079CC","EARTH","TEME","UTC","SGP4","2023-01-02T14:16:04.261728","1.74410280","0.46570190","10.9020","159.9900","70.5840","333.0198","0","U","46604","999","1988","0.00000000000000","-0.00000047","0.0000000000000","29153.260","825.639","36351.853","9198.396","DEBRIS","","US","2018-10-17","AFETR","","3729873","222060504","0 ATLAS 5 CENTAUR DEB","1 46604U 18079CC  23002.59449377 -.00000047  00000-0  00000-0 0  9992","2 46604  10.9020 159.9900 4657019  70.5840 333.0198  1.74410280 19883"
"2.0","GENERATED VIA SPACE-TRACK.ORG API","2023-01-02T08:56:13","18 SPCS","ATLAS 5 CENTAUR DEB","2018-079CC","EARTH","TEME","UTC","SGP4","2023-01-01T10:45:00.918720","1.74410255","0.46568190","10.9022","160.0994","70.3882","333.1238","0","U","46604","999","1986","0.00000000000000","-0.00000050","0.0000000000000","29153.263","825.640","36351.274","9198.981","DEBRIS","","US","2018-10-17","AFETR","","3729270","222000754","0 ATLAS 5 CENTAUR DEB","1 46604U 18079CC  23001.44792730 -.00000050  00000-0  00000+0 0  9992","2 46604  10.9022 160.0994 4656819  70.3882 333.1238  1.74410255 19868"
"2.0","GENERATED VIA SPACE-TRACK.ORG API","2023-01-02T02:38:49","18 SPCS","ATLAS 5 CENTAUR DEB","2018-079CC","EARTH","TEME","UTC","SGP4","2023-01-01T10:45:00.918720","1.74410255","0.46568190","10.9022","160.0994","70.3882","333.1238","0","U","46604","999","1986","0.00000000000000","-0.00000050","0.0000000000000","29153.263","825.640","36351.274","9198.981","DEBRIS","","US","2018-10-17","AFETR","","3728952","221986659","0 ATLAS 5 CENTAUR DEB","1 46604U 18079CC  23001.44792730 -.00000050  00000-0  00000-0 0  9993","2 46604  10.9022 160.0994 4656819  70.3882 333.1238  1.74410255 19868"
"2.0","GENERATED VIA SPACE-TRACK.ORG API","2023-01-02T17:42:09","18 SPCS","ATLAS 5 CENTAUR DEB","2018-079CD","EARTH","TEME","UTC","SGP4","2023-01-02T03:27:18.002304","1.91615413","0.45453080","10.9391","150.9997","106.2515","307.0769","0","U","46605","999","2369","0.00000000000000","-0.00000090","0.0000000000000","27380.931","751.505","33448.273","8557.320","DEBRIS","SMALL","US","2018-10-17","AFETR","","3729583","222027709","0 ATLAS 5 CENTAUR DEB","1 46605U 18079CD  23002.14395836 -.00000090  00000-0  00000-0 0  9992","2 46605  10.9391 150.9997 4545308 106.2515 307.0769  1.91615413 23698"
"2.0","GENERATED VIA SPACE-TRACK.ORG API","2023-01-02T02:38:49","18 SPCS","ATLAS 5 CENTAUR DEB","2018-079CD","EARTH","TEME","UTC","SGP4","2023-01-01T14:55:59.775168","1.91615458","0.45454250","10.9383","151.0578","106.1476","307.1761","0","U","46605","999","2368","0.00000000000000","-0.00000092","0.0000000000000","27380.927","751.505","33448.587","8556.997","DEBRIS","SMALL","US","2018-10-17","AFETR","","3728952","221986909","0 ATLAS 5 CENTAUR DEB","1 46605U 18079CD  23001.62221962 -.00000092  00000-0  00000-0 0  9994","2 46605  10.9383 151.0578 4545425 106.1476 307.1761  1.91615458 23682"
"2.0","GENERATED VIA SPACE-TRACK.ORG API","2023-01-04T03:14:03","18 SPCS","ATLAS 5 CENTAUR DEB","2018-079CD","EARTH","TEME","UTC","SGP4","2023-01-02T15:58:35.287680","1.91615471","0.45452210","10.9396","150.9382","106.3620","306.9705","0","U","46605","999","2370","0.00000000000000","-0.00000088","0.0000000000000","27380.926","751.505","33448.027","8557.555","DEBRIS","SMALL","US","2018-10-17","AFETR","","3730926","222110559","0 ATLAS 5 CENTAUR DEB","1 46605U 18079CD  23002.66568620 -.00000088  00000-0  00000-0 0  9999","2 46605  10.9396 150.9382 4545221 106.3620 306.9705  1.91615471 23707"
"2.0","GENERATED VIA SPACE-TRACK.ORG API","2023-01-04T03:14:03","18 SPCS","ATLAS 5 CENTAUR DEB","2018-079CG","EARTH","TEME","UTC","SGP4","2023-01-02T14:41:28.250592","1.79347136","0.47465320","11.0441","150.4343","91.1382","321.4931","0","U","46608","999","763","0.00000000000000","-0.00000058","0.0000000000000","28615.777","802.912","35820.212","8655.072","DEBRIS","SMALL","US","2018-10-17","AFETR","","3730926","222109809","0 ATLAS 5 CENTAUR DEB","1 46608U 18079CG  23002.61213253 -.00000058  00000-0  00000-0 0  9993","2 46608  11.0441 150.4343 4746532  91.1382 321.4931  1.79347136  7632"
"2.0","GENERATED VIA SPACE-TRACK.ORG API","2023-01-02T07:06:16","18 SPCS","ATLAS 5 CENTAUR DEB","2014-055CM","EARTH","TEME","UTC","SGP4","2023-01-01T19:30:43.797024","1.94680492","0.51236260","20.7184","232.1295","11.5239","356.9282","0","U","46637","999","1589","0.00000000000000","-0.00000062","0.0000000000000","27092.779","739.673","34595.970","6833.317","DEBRIS","SMALL","US","2014-09-17","AFETR","","3729150","221997773","0 ATLAS 5 CENTAUR DEB","1 46637U 14055CM  23001.81300691 -.00000062  00000-0  00000+0 0  9993","2 46637  20.7184 232.1295 5123626  11.5239 356.9282  1.94680492 15891"
"2.0","GENERATED VIA SPACE-TRACK.ORG API","2023-01-02T17:42:09","18 SPCS","ATLAS 5 CENTAUR DEB","2014-055CM","EARTH","TEME","UTC","SGP4","2023-01-02T07:50:21.654528","1.94680349","0.51237370","20.7170","232.0713","11.6285","356.9043","0","U","46637","999","1590","0.00000000000000","-0.00000034","0.0000000000000","27092.792","739.674","34596.291","6833.023","DEBRIS","SMALL","US","2014-09-17","AFETR","","3729583","222028713","0 ATLAS 5 CENTAUR DEB","1 46637U 14055CM  23002.32663952 -.00000034  00000-0  00000-0 0  9992","2 46637  20.7170 232.0713 5123737  11.6285 356.9043  1.94680349 15903"
"2.0","GENERATED VIA SPACE-TRACK.ORG API","2023-01-01T17:55:23","18 SPCS","ATLAS 5 CENTAUR DEB","2014-055CP","EARTH","TEME","UTC","SGP4","2023-01-01T04:27:57.783744","1.88249391","0.47116130","20.9788","263.0400","317.3708","14.5105","0","U","46639","999","1534","0.00000000000000","-0.00000070","0.0000000000000","27706.359","764.943","34382.388","8274.060","DEBRIS","","US","2014-09-17","AFETR","","3728759","221930053","0 ATLAS 5 CENTAUR DEB","1 46639U 14055CP  23001.18608546 -.00000070  00000-0  00000-0 0  9995","2 46639  20.9788 263.0400 4711613 317.3708  14.5105  1.88249391 15345"
"2.0","GENERATED VIA SPACE-TRACK.ORG API","2023-01-02T17:42:09","18 SPCS","ATLAS 5 CENTAUR DEB","2014-055CP","EARTH","TEME","UTC","SGP4","2023-01-01T17:12:51.339168","1.88248853","0.47114760","20.9781","262.9909","317.4621","14.4824","0","U","46639","999","1535","0.00000000000000","-0.00000061","0.0000000000000","27706.412","764.945","34382.086","8274.467","DEBRIS","","US","2014-09-17","AFETR","","3729583","222027712","0 ATLAS 5 CENTAUR DEB","1 46639U 14055CP  23001.71726087 -.00000061  00000-0  00000-0 0  9995","2 46639  20.9781 262.9909 4711476 317.4621  14.4824  1.88248853 15352"
"2.0","GENERATED VIA SPACE-TRACK.ORG API","2023-01-01T22:46:13","18 SPCS","ATLAS 5 CENTAUR DEB","2014-055CP","EARTH","TEME","UTC","SGP4","2023-01-01T04:27:57.783744","1.88249391","0.47116130","20.9788","263.0400","317.3708","14.5105","0","U","46639","999","1534","0.00000000000000","-0.00000070","0.0000000000000","27706.359","764.943","34382.388","8274.060","DEBRIS","","US","2014-09-17","AFETR","","3728815","221963610","0 ATLAS 5 CENTAUR DEB","1 46639U 14055CP  23001.18608546 -.00000070  00000-0  00000+0 0  9994","2 46639  20.9788 263.0400 4711613 317.3708  14.5105  1.88249391 15345"
"2.0","GENERATED VIA SPACE-TRACK.ORG API","2023-01-03T02:40:54","18 SPCS","ATLAS 5 CENTAUR DEB","2014-055CP","EARTH","TEME","UTC","SGP4","2023-01-02T05:57:45.241056","1.88248535","0.47112920","20.9773","262.9421","317.5536","14.4552","0","U","46639","999","1536","0.00000000000000","-0.00000054","0.0000000000000","27706.443","764.946","34381.622","8274.994","DEBRIS","","US","2014-09-17","AFETR","","3729873","222060757","0 ATLAS 5 CENTAUR DEB","1 46639U 14055CP  23002.24844029 -.00000054  00000-0  00000-0 0  9993","2 46639  20.9773 262.9421 4711292 317.5536  14.4552  1.88248535 15360"
"2.0","GENERATED VIA SPACE-TRACK.ORG API","2023-01-04T03:14:03","18 SPCS","ATLAS 5 CENTAUR DEB","2014-055CP","EARTH","TEME","UTC","SGP4","2023-01-02T18:42:38.804256","1.88249612","0.47111180","20.9766","262.8932","317.6448","14.4284","0","U","46639","999","1537","0.00000000000000","-0.00000048","0.0000000000000","27706.337","764.942","34380.985","8275.420","DEBRIS","","US","2014-09-17","AFETR","","3730926","222110562","0 ATLAS 5 CENTAUR DEB","1 46639U 14055CP  23002.77961579 -.00000048  00000-0  00000-0 0  9994","2 46639  20.9766 262.8932 4711118 317.6448  14.4284  1.88249612 15378"
